start=new Date('2022-12-23T00:00:00.000Z').valueOf();
sats=[{"ARG_OF_PERICENTER":"39.2685","APOAPSIS":"541.638","COUNTRY_CODE":"US","ECCENTRICITY":"0.00027340","REV_AT_EPOCH":"4692","LAUNCH_DATE":"2022-02-25","NORAD_CAT_ID":"51809","MEAN_MOTION_DOT":"0.00000910","FILE":"3719197","SEMIMAJOR_AXIS":"6917.882","RA_OF_ASC_NODE":"206.5631","RCS_SIZE":"LARGE","PERIAPSIS":"537.856","CENTER_NAME":"EARTH","EPHEMERIS_TYPE":"0","MEAN_MOTION_DDOT":"0.0000000000000","TLE_LINE1":"1 51809U 22017AT  22356.32518018  .00000910  00000-0  75312-4 0  9993","INCLINATION":"53.2155","GP_ID":"221200937","MEAN_MOTION":"15.08839491","DECAY_DATE":null,"MEAN_ELEMENT_THEORY":"SGP4","EPOCH":"2022-12-22T07:48:15.567552","CLASSIFICATION_TYPE":"U","OBJECT_NAME":"STARLINK-3607","TIME_SYSTEM":"UTC","MEAN_ANOMALY":"320.8505","OBJECT_ID":"2022-017AT","REF_FRAME":"TEME","ELEMENT_SET_NO":"999","BSTAR":"0.00007531200000","OBJECT_TYPE":"PAYLOAD","SITE":"AFWTR","TLE_LINE2":"2 51809  53.2155 206.5631 0002734  39.2685 320.8505 15.08839491 46920","PERIOD":"95.438"},{"BSTAR":"0.00004533600000","REF_FRAME":"TEME","ELEMENT_SET_NO":"999","OBJECT_ID":"2022-017AU","MEAN_ANOMALY":"327.2061","CLASSIFICATION_TYPE":"U","TIME_SYSTEM":"UTC","OBJECT_NAME":"STARLINK-3613","EPOCH":"2022-12-22T20:49:57.095616","PERIOD":"95.439","TLE_LINE2":"2 51810  53.2163 194.1297 0002544  32.9089 327.2061 15.08822048 47028","SITE":"AFWTR","OBJECT_TYPE":"PAYLOAD","SEMIMAJOR_AXIS":"6917.935","FILE":"3719655","NORAD_CAT_ID":"51810","MEAN_MOTION_DOT":"0.00000433","LAUNCH_DATE":"2022-02-25","REV_AT_EPOCH":"4702","ECCENTRICITY":"0.00025440","COUNTRY_CODE":"US","APOAPSIS":"541.560","ARG_OF_PERICENTER":"32.9089","MEAN_MOTION":"15.08822048","GP_ID":"221236566","DECAY_DATE":null,"MEAN_ELEMENT_THEORY":"SGP4","INCLINATION":"53.2163","TLE_LINE1":"1 51810U 22017AU  22356.86802194  .00000433  00000-0  45336-4 0  9998","MEAN_MOTION_DDOT":"0.0000000000000","EPHEMERIS_TYPE":"0","CENTER_NAME":"EARTH","PERIAPSIS":"538.040","RCS_SIZE":"LARGE","RA_OF_ASC_NODE":"194.1297"},{"ARG_OF_PERICENTER":"38.5843","APOAPSIS":"541.646","ECCENTRICITY":"0.00027080","COUNTRY_CODE":"US","MEAN_MOTION_DOT":"0.00001248","NORAD_CAT_ID":"51811","SEMIMAJOR_AXIS":"6917.907","FILE":"3719655","REV_AT_EPOCH":"4690","LAUNCH_DATE":"2022-02-25","RCS_SIZE":"LARGE","PERIAPSIS":"537.899","CENTER_NAME":"EARTH","RA_OF_ASC_NODE":"204.2171","EPHEMERIS_TYPE":"0","MEAN_MOTION_DDOT":"0.0000000000000","INCLINATION":"53.2140","MEAN_ELEMENT_THEORY":"SGP4","GP_ID":"221236816","DECAY_DATE":null,"MEAN_MOTION":"15.08831154","TLE_LINE1":"1 51811U 22017AV  22356.84773789  .00001248  00000-0  96545-4 0  9997","EPOCH":"2022-12-22T20:20:44.553696","MEAN_ANOMALY":"321.5342","CLASSIFICATION_TYPE":"U","OBJECT_NAME":"STARLINK-3569","TIME_SYSTEM":"UTC","ELEMENT_SET_NO":"999","REF_FRAME":"TEME","OBJECT_ID":"2022-017AV","BSTAR":"0.00009654500000","OBJECT_TYPE":"PAYLOAD","SITE":"AFWTR","PERIOD":"95.438","TLE_LINE2":"2 51811  53.2140 204.2171 0002708  38.5843 321.5342 15.08831154 46903"},{"MEAN_ANOMALY":"326.2890","CLASSIFICATION_TYPE":"U","OBJECT_NAME":"STARLINK-3610","TIME_SYSTEM":"UTC","EPOCH":"2022-12-22T17:21:54.289728","BSTAR":"0.00012729000000","ELEMENT_SET_NO":"999","REF_FRAME":"TEME","OBJECT_ID":"2022-017AW","SITE":"AFWTR","OBJECT_TYPE":"PAYLOAD","PERIOD":"95.439","TLE_LINE2":"2 51812  53.2175 194.7755 0003351  33.8316 326.2890 15.08809759 47009","ECCENTRICITY":"0.00033510","COUNTRY_CODE":"US","ARG_OF_PERICENTER":"33.8316","APOAPSIS":"542.156","NORAD_CAT_ID":"51812","MEAN_MOTION_DOT":"0.00001736","SEMIMAJOR_AXIS":"6917.973","FILE":"3719655","REV_AT_EPOCH":"4700","LAUNCH_DATE":"2022-02-25","EPHEMERIS_TYPE":"0","RCS_SIZE":"LARGE","CENTER_NAME":"EARTH","PERIAPSIS":"537.520","RA_OF_ASC_NODE":"194.7755","INCLINATION":"53.2175","GP_ID":"221237068","MEAN_ELEMENT_THEORY":"SGP4","DECAY_DATE":null,"MEAN_MOTION":"15.08809759","TLE_LINE1":"1 51812U 22017AW  22356.72354502  .00001736  00000-0  12729-3 0  9996","MEAN_MOTION_DDOT":"0.0000000000000"},{"MEAN_MOTION_DDOT":"0.0000000000000","TLE_LINE1":"1 51813U 22017AX  22356.70241435 -.00000950  00000-0 -41533-4 0  9990","GP_ID":"221237318","MEAN_MOTION":"15.08840040","DECAY_DATE":null,"MEAN_ELEMENT_THEORY":"SGP4","INCLINATION":"53.2167","RA_OF_ASC_NODE":"194.8738","CENTER_NAME":"EARTH","PERIAPSIS":"537.656","RCS_SIZE":"LARGE","EPHEMERIS_TYPE":"0","LAUNCH_DATE":"2022-02-25","REV_AT_EPOCH":"4700","FILE":"3719655","SEMIMAJOR_AXIS":"6917.880","MEAN_MOTION_DOT":"-0.00000950","NORAD_CAT_ID":"51813","APOAPSIS":"541.834","ARG_OF_PERICENTER":"35.0274","COUNTRY_CODE":"US","ECCENTRICITY":"0.00030200","TLE_LINE2":"2 51813  53.2167 194.8738 0003020  35.0274 325.0916 15.08840040 47007","PERIOD":"95.438","OBJECT_TYPE":"PAYLOAD","SITE":"AFWTR","OBJECT_ID":"2022-017AX","ELEMENT_SET_NO":"999","REF_FRAME":"TEME","BSTAR":"-0.00004153300000","EPOCH":"2022-12-22T16:51:28.599840","TIME_SYSTEM":"UTC","CLASSIFICATION_TYPE":"U","OBJECT_NAME":"STARLINK-3552","MEAN_ANOMALY":"325.0916"},{"REV_AT_EPOCH":"4700","LAUNCH_DATE":"2022-02-25","NORAD_CAT_ID":"51814","MEAN_MOTION_DOT":"0.00000008","SEMIMAJOR_AXIS":"6917.892","FILE":"3719655","COUNTRY_CODE":"US","ECCENTRICITY":"0.00022750","ARG_OF_PERICENTER":"36.9465","APOAPSIS":"541.331","TLE_LINE1":"1 51814U 22017AY  22356.71617775  .00000008  00000-0  18601-4 0  9998","INCLINATION":"53.2173","GP_ID":"221236067","DECAY_DATE":null,"MEAN_MOTION":"15.08836121","MEAN_ELEMENT_THEORY":"SGP4","MEAN_MOTION_DDOT":"0.0000000000000","EPHEMERIS_TYPE":"0","RA_OF_ASC_NODE":"194.8185","RCS_SIZE":"LARGE","PERIAPSIS":"538.183","CENTER_NAME":"EARTH","BSTAR":"0.00001860100000","OBJECT_ID":"2022-017AY","ELEMENT_SET_NO":"999","REF_FRAME":"TEME","TIME_SYSTEM":"UTC","CLASSIFICATION_TYPE":"U","OBJECT_NAME":"STARLINK-3599","MEAN_ANOMALY":"323.1684","EPOCH":"2022-12-22T17:11:17.757600","TLE_LINE2":"2 51814  53.2173 194.8185 0002275  36.9465 323.1684 15.08836121 47000","PERIOD":"95.438","SITE":"AFWTR","OBJECT_TYPE":"PAYLOAD"},{"SITE":"AFWTR","OBJECT_TYPE":"PAYLOAD","TLE_LINE2":"2 51815  53.2154 194.2057 0001586  54.6742 305.4398 15.08828017 47023","PERIOD":"95.438","OBJECT_NAME":"STARLINK-3604","CLASSIFICATION_TYPE":"U","TIME_SYSTEM":"UTC","MEAN_ANOMALY":"305.4398","EPOCH":"2022-12-22T20:27:22.233888","BSTAR":"0.00001471600000","OBJECT_ID":"2022-017AZ","ELEMENT_SET_NO":"999","REF_FRAME":"TEME","EPHEMERIS_TYPE":"0","RA_OF_ASC_NODE":"194.2057","RCS_SIZE":"LARGE","CENTER_NAME":"EARTH","PERIAPSIS":"538.685","TLE_LINE1":"1 51815U 22017AZ  22356.85234067 -.00000054  00000-0  14716-4 0  9998","INCLINATION":"53.2154","GP_ID":"221236317","MEAN_MOTION":"15.08828017","DECAY_DATE":null,"MEAN_ELEMENT_THEORY":"SGP4","MEAN_MOTION_DDOT":"0.0000000000000","COUNTRY_CODE":"US","ECCENTRICITY":"0.00015860","ARG_OF_PERICENTER":"54.6742","APOAPSIS":"540.879","REV_AT_EPOCH":"4702","LAUNCH_DATE":"2022-02-25","MEAN_MOTION_DOT":"-0.00000054","NORAD_CAT_ID":"51815","SEMIMAJOR_AXIS":"6917.917","FILE":"3719655"},{"EPHEMERIS_TYPE":"0","RA_OF_ASC_NODE":"194.8273","RCS_SIZE":"MEDIUM","PERIAPSIS":"538.193","CENTER_NAME":"EARTH","TLE_LINE1":"1 51816U 22017BA  22356.71249656 -.00002451  00000-0 -13596-3 0  9992","INCLINATION":"53.2150","MEAN_ELEMENT_THEORY":"SGP4","GP_ID":"221237567","DECAY_DATE":null,"MEAN_MOTION":"15.08831735","MEAN_MOTION_DDOT":"0.0000000000000","COUNTRY_CODE":"US","ECCENTRICITY":"0.00022800","ARG_OF_PERICENTER":"46.7606","APOAPSIS":"541.348","REV_AT_EPOCH":"4705","LAUNCH_DATE":"2022-02-25","MEAN_MOTION_DOT":"-0.00002451","NORAD_CAT_ID":"51816","FILE":"3719655","SEMIMAJOR_AXIS":"6917.906","SITE":"AFWTR","OBJECT_TYPE":"PAYLOAD","TLE_LINE2":"2 51816  53.2150 194.8273 0002280  46.7606 313.3577 15.08831735 47050","PERIOD":"95.438","OBJECT_NAME":"STARLINK-3603","CLASSIFICATION_TYPE":"U","TIME_SYSTEM":"UTC","MEAN_ANOMALY":"313.3577","EPOCH":"2022-12-22T17:05:59.702784","BSTAR":"-0.00013596000000","OBJECT_ID":"2022-017BA","REF_FRAME":"TEME","ELEMENT_SET_NO":"999"},{"OBJECT_TYPE":"PAYLOAD","SITE":"AFWTR","TLE_LINE2":"2 51817  53.1990  87.5786 0004683 333.7975  26.2809 15.76734977 48612","PERIOD":"91.328","EPOCH":"2022-12-22T19:23:24.199008","CLASSIFICATION_TYPE":"U","OBJECT_NAME":"STARLINK-3596","TIME_SYSTEM":"UTC","MEAN_ANOMALY":"26.2809","OBJECT_ID":"2022-017BB","ELEMENT_SET_NO":"999","REF_FRAME":"TEME","BSTAR":"0.00000840360000","RA_OF_ASC_NODE":"87.5786","CENTER_NAME":"EARTH","PERIAPSIS":"336.555","RCS_SIZE":"LARGE","EPHEMERIS_TYPE":"0","MEAN_MOTION_DDOT":"0.0000000000000","TLE_LINE1":"1 51817U 22017BB  22356.80791897  .00000716  00000-0  84036-5 0  9991","MEAN_ELEMENT_THEORY":"SGP4","GP_ID":"221237818","DECAY_DATE":null,"MEAN_MOTION":"15.76734977","INCLINATION":"53.1990","APOAPSIS":"342.847","ARG_OF_PERICENTER":"333.7975","COUNTRY_CODE":"US","ECCENTRICITY":"0.00046830","LAUNCH_DATE":"2022-02-25","REV_AT_EPOCH":"4861","FILE":"3719655","SEMIMAJOR_AXIS":"6717.836","NORAD_CAT_ID":"51817","MEAN_MOTION_DOT":"0.00000716"},{"ECCENTRICITY":"0.00024450","COUNTRY_CODE":"US","APOAPSIS":"541.454","ARG_OF_PERICENTER":"33.8590","FILE":"3719577","SEMIMAJOR_AXIS":"6917.898","NORAD_CAT_ID":"51852","MEAN_MOTION_DOT":"0.00000864","LAUNCH_DATE":"2022-03-03","REV_AT_EPOCH":"4596","EPHEMERIS_TYPE":"0","PERIAPSIS":"538.071","CENTER_NAME":"EARTH","RCS_SIZE":"LARGE","RA_OF_ASC_NODE":"243.8001","GP_ID":"221211651","MEAN_ELEMENT_THEORY":"SGP4","DECAY_DATE":null,"MEAN_MOTION":"15.08834316","INCLINATION":"53.2167","TLE_LINE1":"1 51852U 22022A   22356.93972801  .00000864  00000-0  72426-4 0  9999","MEAN_MOTION_DDOT":"0.0000000000000","MEAN_ANOMALY":"326.2558","CLASSIFICATION_TYPE":"U","TIME_SYSTEM":"UTC","OBJECT_NAME":"STARLINK-3542","EPOCH":"2022-12-22T22:33:12.500064","BSTAR":"0.00007242600000","ELEMENT_SET_NO":"999","REF_FRAME":"TEME","OBJECT_ID":"2022-022A","SITE":"AFETR","OBJECT_TYPE":"PAYLOAD","PERIOD":"95.438","TLE_LINE2":"2 51852  53.2167 243.8001 0002445  33.8590 326.2558 15.08834316 45962"}];
